{
  "norad_id": 53206,
  "name": "STARLINK-4408",
  "history": [
    {
      "epoch": "2026-03-28T22:15:05.132736Z",
      "apogee_km": 549.8694220998159,
      "perigee_km": 549.1515792657947,
      "latitude_deg": 7.193881633619834e-06,
      "longitude_deg": -9.942856876074107,
      "height_km": 552.6456546930516,
      "semi_major_axis_km": 6927.647500682805,
      "eccentricity": 5.181e-05,
      "inclination_deg": 97.6029,
      "raan_deg": 150.1691,
      "arg_perigee_deg": 101.3694,
      "mean_anomaly_deg": 258.7591,
      "mean_motion_rev_day": 15.05650213
    },
    {
      "epoch": "2026-03-29T03:02:11.073984Z",
      "apogee_km": 549.8643332453867,
      "perigee_km": 549.1521713134516,
      "latitude_deg": -3.845775636480016e-05,
      "longitude_deg": -81.71741827695138,
      "height_km": 552.6453015734747,
      "semi_major_axis_km": 6927.645252279419,
      "eccentricity": 5.14e-05,
      "inclination_deg": 97.6029,
      "raan_deg": 150.3658,
      "arg_perigee_deg": 101.7702,
      "mean_anomaly_deg": 258.3582,
      "mean_motion_rev_day": 15.05650946
    },
    {
      "epoch": "2026-03-30T01:21:58.833216Z",
      "apogee_km": 549.862510197212,
      "perigee_km": 549.1342771646277,
      "latitude_deg": 1.9839992061458627e-06,
      "longitude_deg": -56.66617770292742,
      "height_km": 552.6280039181885,
      "semi_major_axis_km": 6927.635393680919,
      "eccentricity": 5.256e-05,
      "inclination_deg": 97.6026,
      "raan_deg": 151.2831,
      "arg_perigee_deg": 100.3172,
      "mean_anomaly_deg": 259.8114,
      "mean_motion_rev_day": 15.0565416
    },
    {
      "epoch": "2026-03-30T14:07:35.435712Z",
      "apogee_km": 549.8980659273711,
      "perigee_km": 549.1468305368053,
      "latitude_deg": 5.719607414415557e-06,
      "longitude_deg": 111.93117056321334,
      "height_km": 552.6794257558084,
      "semi_major_axis_km": 6927.659448232088,
      "eccentricity": 5.422e-05,
      "inclination_deg": 97.6023,
      "raan_deg": 151.807,
      "arg_perigee_deg": 104.2704,
      "mean_anomaly_deg": 255.8583,
      "mean_motion_rev_day": 15.05646318
    },
    {
      "epoch": "2026-03-30T17:18:59.335776Z",
      "apogee_km": 549.8847824816066,
      "perigee_km": 549.1547460117899,
      "latitude_deg": 1.0124622861087258e-05,
      "longitude_deg": 64.08147902732749,
      "height_km": 552.6820146968907,
      "semi_major_axis_km": 6927.656764246698,
      "eccentricity": 5.269e-05,
      "inclination_deg": 97.6025,
      "raan_deg": 151.9379,
      "arg_perigee_deg": 105.5475,
      "mean_anomaly_deg": 254.581,
      "mean_motion_rev_day": 15.05647193
    }
  ]
}